SL-14 R/B               
1 21423U 91042B   26005.14718362  .00000647  00000+0  78884-4 0  9998
2 21423  82.4938 279.7757 0018562  89.7671 270.5670 14.81765506843669
ERS-1                   
1 21574U 91050A   26005.58031737  .00000569  00000+0  19651-3 0  9995
2 21574  98.7895  22.2307 0032492  31.1679 329.1426 14.39388761806652
ARIANE 40 R/B           
1 21610U 91050F   26005.64253799  .00000540  00000+0  17424-3 0  9992
2 21610  98.2129  60.2066 0002011 260.3601  99.7363 14.42837587809907
INTERCOSMOS 25          
1 21819U 91086A   26005.57820238  .00001983  00000+0  39497-3 0  9998
2 21819  82.6079 348.1546 1485950 252.9797  90.3639 12.11828857489047
SL-8 R/B                
1 21876U 92008B   26005.62609859  .00000128  00000+0  11625-3 0  9999
2 21876  82.9283 314.6806 0033798 312.5734 221.0380 13.75964684700748
SL-8 R/B                
1 21938U 92020B   26005.62795682  .00000168  00000+0  15760-3 0  9990
2 21938  82.9292 200.5779 0030116 112.9676 312.6765 13.75534681692460
USA 81                  
1 21949U 92023A   26005.50681856  .00000289  00000+0  99613-4 0  9993
2 21949  85.0091 167.8692 0001231 112.5021 247.6302 14.32338439 85746
COSMOS 2219             
1 22219U 92076A   26005.63443722  .00000280  00000+0  17184-3 0  9997
2 22219  71.0608 149.8830 0020160 293.8385  66.0624 14.14078282709467
SL-16 R/B               
1 22220U 92076B   26005.60214468  .00000013  00000+0  30408-4 0  9998
2 22220  71.0012 321.2654 0013608 201.3919 331.8976 14.16845473712894
COSMOS 2221             
1 22236U 92080A   26005.43179001  .00002684  00000+0  23728-3 0  9996
2 22236  82.5052 339.6455 0015892  49.9289 310.3324 14.95885387771335
SL-16 R/B               
1 22285U 92093B   26005.63083614 -.00000096  00000+0 -24817-4 0  9998
2 22285  71.0211 136.6440 0003162   9.2269 350.8911 14.15433857704231
COSMOS 2228             
1 22286U 92094A   26005.62314856  .00003585  00000+0  30937-3 0  9997
2 22286  82.5197 297.6824 0018700 149.2058 211.0265 14.96870314766624
