CCSDS_OMM_VERS = 2.0
CREATION_DATE  = 
ORIGINATOR     = 

OBJECT_NAME    = SL-14 R/B
OBJECT_ID      = 1991-042B
CENTER_NAME    = EARTH
REF_FRAME      = TEME
TIME_SYSTEM    = UTC
MEAN_ELEMENT_THEORY = SGP/SGP4

EPOCH          = 2026-01-05T03:31:56.664768
MEAN_MOTION    = 14.81765506
ECCENTRICITY   = .00185621
INCLINATION    = 82.4938
RA_OF_ASC_NODE = 279.7757
ARG_OF_PERICENTER = 89.7671
MEAN_ANOMALY   = 270.5670

EPHEMERIS_TYPE = 0
CLASSIFICATION_TYPE = U
NORAD_CAT_ID   = 21423
ELEMENT_SET_NO = 999
REV_AT_EPOCH   = 84366
BSTAR          = .78884285E-4
MEAN_MOTION_DOT = .647E-5
MEAN_MOTION_DDOT = 0

CCSDS_OMM_VERS = 2.0
CREATION_DATE  = 
ORIGINATOR     = 

OBJECT_NAME    = ERS-1
OBJECT_ID      = 1991-050A
CENTER_NAME    = EARTH
REF_FRAME      = TEME
TIME_SYSTEM    = UTC
MEAN_ELEMENT_THEORY = SGP/SGP4

EPOCH          = 2026-01-05T13:55:39.420768
MEAN_MOTION    = 14.39388761
ECCENTRICITY   = .00324929
INCLINATION    = 98.7895
RA_OF_ASC_NODE = 22.2307
ARG_OF_PERICENTER = 31.1679
MEAN_ANOMALY   = 329.1426

EPHEMERIS_TYPE = 0
CLASSIFICATION_TYPE = U
NORAD_CAT_ID   = 21574
ELEMENT_SET_NO = 999
REV_AT_EPOCH   = 80665
BSTAR          = .19651043E-3
MEAN_MOTION_DOT = .569E-5
MEAN_MOTION_DDOT = 0

CCSDS_OMM_VERS = 2.0
CREATION_DATE  = 
ORIGINATOR     = 

OBJECT_NAME    = ARIANE 40 R/B
OBJECT_ID      = 1991-050F
CENTER_NAME    = EARTH
REF_FRAME      = TEME
TIME_SYSTEM    = UTC
MEAN_ELEMENT_THEORY = SGP/SGP4

EPOCH          = 2026-01-05T15:25:15.282336
MEAN_MOTION    = 14.42837587
ECCENTRICITY   = .0002011
INCLINATION    = 98.2129
RA_OF_ASC_NODE = 60.2066
ARG_OF_PERICENTER = 260.3601
MEAN_ANOMALY   = 99.7363

EPHEMERIS_TYPE = 0
CLASSIFICATION_TYPE = U
NORAD_CAT_ID   = 21610
ELEMENT_SET_NO = 999
REV_AT_EPOCH   = 80990
BSTAR          = .17423525E-3
MEAN_MOTION_DOT = .54E-5
MEAN_MOTION_DDOT = 0

CCSDS_OMM_VERS = 2.0
CREATION_DATE  = 
ORIGINATOR     = 

OBJECT_NAME    = INTERCOSMOS 25
OBJECT_ID      = 1991-086A
CENTER_NAME    = EARTH
REF_FRAME      = TEME
TIME_SYSTEM    = UTC
MEAN_ELEMENT_THEORY = SGP/SGP4

EPOCH          = 2026-01-05T13:52:36.685632
MEAN_MOTION    = 12.11828857
ECCENTRICITY   = .14859504
INCLINATION    = 82.6079
RA_OF_ASC_NODE = 348.1546
ARG_OF_PERICENTER = 252.9797
MEAN_ANOMALY   = 90.3639

EPHEMERIS_TYPE = 0
CLASSIFICATION_TYPE = U
NORAD_CAT_ID   = 21819
ELEMENT_SET_NO = 999
REV_AT_EPOCH   = 48904
BSTAR          = .39497013E-3
MEAN_MOTION_DOT = .1983E-4
MEAN_MOTION_DDOT = 0

CCSDS_OMM_VERS = 2.0
CREATION_DATE  = 
ORIGINATOR     = 

OBJECT_NAME    = SL-8 R/B
OBJECT_ID      = 1992-008B
CENTER_NAME    = EARTH
REF_FRAME      = TEME
TIME_SYSTEM    = UTC
MEAN_ELEMENT_THEORY = SGP/SGP4

EPOCH          = 2026-01-05T15:01:34.918176
MEAN_MOTION    = 13.75964684
ECCENTRICITY   = .00337981
INCLINATION    = 82.9283
RA_OF_ASC_NODE = 314.6806
ARG_OF_PERICENTER = 312.5734
MEAN_ANOMALY   = 221.0380

EPHEMERIS_TYPE = 0
CLASSIFICATION_TYPE = U
NORAD_CAT_ID   = 21876
ELEMENT_SET_NO = 999
REV_AT_EPOCH   = 70074
BSTAR          = .11624564E-3
MEAN_MOTION_DOT = .128E-5
MEAN_MOTION_DDOT = 0

CCSDS_OMM_VERS = 2.0
CREATION_DATE  = 
ORIGINATOR     = 

OBJECT_NAME    = SL-8 R/B
OBJECT_ID      = 1992-020B
CENTER_NAME    = EARTH
REF_FRAME      = TEME
TIME_SYSTEM    = UTC
MEAN_ELEMENT_THEORY = SGP/SGP4

EPOCH          = 2026-01-05T15:04:15.469248
MEAN_MOTION    = 13.75534681
ECCENTRICITY   = .0030116
INCLINATION    = 82.9292
RA_OF_ASC_NODE = 200.5779
ARG_OF_PERICENTER = 112.9676
MEAN_ANOMALY   = 312.6765

EPHEMERIS_TYPE = 0
CLASSIFICATION_TYPE = U
NORAD_CAT_ID   = 21938
ELEMENT_SET_NO = 999
REV_AT_EPOCH   = 69246
BSTAR          = .15759683E-3
MEAN_MOTION_DOT = .168E-5
MEAN_MOTION_DDOT = 0

CCSDS_OMM_VERS = 2.0
CREATION_DATE  = 
ORIGINATOR     = 

OBJECT_NAME    = USA 81
OBJECT_ID      = 1992-023A
CENTER_NAME    = EARTH
REF_FRAME      = TEME
TIME_SYSTEM    = UTC
MEAN_ELEMENT_THEORY = SGP/SGP4

EPOCH          = 2026-01-05T12:09:49.123584
MEAN_MOTION    = 14.32338439
ECCENTRICITY   = .00012318
INCLINATION    = 85.0091
RA_OF_ASC_NODE = 167.8692
ARG_OF_PERICENTER = 112.5021
MEAN_ANOMALY   = 247.6302

EPHEMERIS_TYPE = 0
CLASSIFICATION_TYPE = U
NORAD_CAT_ID   = 21949
ELEMENT_SET_NO = 999
REV_AT_EPOCH   = 8574
BSTAR          = .99613394E-4
MEAN_MOTION_DOT = .289E-5
MEAN_MOTION_DDOT = 0

CCSDS_OMM_VERS = 2.0
CREATION_DATE  = 
ORIGINATOR     = 

OBJECT_NAME    = COSMOS 2219
OBJECT_ID      = 1992-076A
CENTER_NAME    = EARTH
REF_FRAME      = TEME
TIME_SYSTEM    = UTC
MEAN_ELEMENT_THEORY = SGP/SGP4

EPOCH          = 2026-01-05T15:13:35.375808
MEAN_MOTION    = 14.14078282
ECCENTRICITY   = .00201601
INCLINATION    = 71.0608
RA_OF_ASC_NODE = 149.8830
ARG_OF_PERICENTER = 293.8385
MEAN_ANOMALY   = 66.0624

EPHEMERIS_TYPE = 0
CLASSIFICATION_TYPE = U
NORAD_CAT_ID   = 22219
ELEMENT_SET_NO = 999
REV_AT_EPOCH   = 70946
BSTAR          = .17183715E-3
MEAN_MOTION_DOT = .28E-5
MEAN_MOTION_DDOT = 0

CCSDS_OMM_VERS = 2.0
CREATION_DATE  = 
ORIGINATOR     = 

OBJECT_NAME    = SL-16 R/B
OBJECT_ID      = 1992-076B
CENTER_NAME    = EARTH
REF_FRAME      = TEME
TIME_SYSTEM    = UTC
MEAN_ELEMENT_THEORY = SGP/SGP4

EPOCH          = 2026-01-05T14:27:05.300352
MEAN_MOTION    = 14.16845473
ECCENTRICITY   = .00136089
INCLINATION    = 71.0012
RA_OF_ASC_NODE = 321.2654
ARG_OF_PERICENTER = 201.3919
MEAN_ANOMALY   = 331.8976

EPHEMERIS_TYPE = 0
CLASSIFICATION_TYPE = U
NORAD_CAT_ID   = 22220
ELEMENT_SET_NO = 999
REV_AT_EPOCH   = 71289
BSTAR          = .30407682E-4
MEAN_MOTION_DOT = .13E-6
MEAN_MOTION_DDOT = 0

CCSDS_OMM_VERS = 2.0
CREATION_DATE  = 
ORIGINATOR     = 

OBJECT_NAME    = COSMOS 2221
OBJECT_ID      = 1992-080A
CENTER_NAME    = EARTH
REF_FRAME      = TEME
TIME_SYSTEM    = UTC
MEAN_ELEMENT_THEORY = SGP/SGP4

EPOCH          = 2026-01-05T10:21:46.656864
MEAN_MOTION    = 14.95885387
ECCENTRICITY   = .00158923
INCLINATION    = 82.5052
RA_OF_ASC_NODE = 339.6455
ARG_OF_PERICENTER = 49.9289
MEAN_ANOMALY   = 310.3324

EPHEMERIS_TYPE = 0
CLASSIFICATION_TYPE = U
NORAD_CAT_ID   = 22236
ELEMENT_SET_NO = 999
REV_AT_EPOCH   = 77133
BSTAR          = .23728318E-3
MEAN_MOTION_DOT = .2684E-4
MEAN_MOTION_DDOT = 0

CCSDS_OMM_VERS = 2.0
CREATION_DATE  = 
ORIGINATOR     = 

OBJECT_NAME    = SL-16 R/B
OBJECT_ID      = 1992-093B
CENTER_NAME    = EARTH
REF_FRAME      = TEME
TIME_SYSTEM    = UTC
MEAN_ELEMENT_THEORY = SGP/SGP4

EPOCH          = 2026-01-05T15:08:24.242496
MEAN_MOTION    = 14.15433857
ECCENTRICITY   = .00031623
INCLINATION    = 71.0211
RA_OF_ASC_NODE = 136.6440
ARG_OF_PERICENTER = 9.2269
MEAN_ANOMALY   = 350.8911

EPHEMERIS_TYPE = 0
CLASSIFICATION_TYPE = U
NORAD_CAT_ID   = 22285
ELEMENT_SET_NO = 999
REV_AT_EPOCH   = 70423
BSTAR          = -.24817412E-4
MEAN_MOTION_DOT = -.96E-6
MEAN_MOTION_DDOT = 0

CCSDS_OMM_VERS = 2.0
CREATION_DATE  = 
ORIGINATOR     = 

OBJECT_NAME    = COSMOS 2228
OBJECT_ID      = 1992-094A
CENTER_NAME    = EARTH
REF_FRAME      = TEME
TIME_SYSTEM    = UTC
MEAN_ELEMENT_THEORY = SGP/SGP4

EPOCH          = 2026-01-05T14:57:20.035584
MEAN_MOTION    = 14.96870314
ECCENTRICITY   = .00187008
INCLINATION    = 82.5197
RA_OF_ASC_NODE = 297.6824
ARG_OF_PERICENTER = 149.2058
MEAN_ANOMALY   = 211.0265

EPHEMERIS_TYPE = 0
CLASSIFICATION_TYPE = U
NORAD_CAT_ID   = 22286
ELEMENT_SET_NO = 999
REV_AT_EPOCH   = 76662
BSTAR          = .30937302E-3
MEAN_MOTION_DOT = .3585E-4
MEAN_MOTION_DDOT = 0

